[{"OBJECT_NAME":"KUIPER-00025","OBJECT_ID":"2025-088R","EPOCH":"2026-03-09T06:58:33.870720","MEAN_MOTION":14.83523412,"ECCENTRICITY":4.92e-5,"INCLINATION":51.9016,"RA_OF_ASC_NODE":103.1273,"ARG_OF_PERICENTER":19.3968,"MEAN_ANOMALY":340.7015,"EPHEMERIS_TYPE":0,"CLASSIFICATION_TYPE":"U","NORAD_CAT_ID":63739,"ELEMENT_SET_NO":999,"REV_AT_EPOCH":4774,"BSTAR":0.00061010528,"MEAN_MOTION_DOT":4.845e-5,"MEAN_MOTION_DDOT":0},{"OBJECT_NAME":"SL-14 R\/B","OBJECT_ID":"1983-122B","EPOCH":"2026-03-09T19:33:20.530944","MEAN_MOTION":14.85861842,"ECCENTRICITY":0.00180897,"INCLINATION":82.5257,"RA_OF_ASC_NODE":329.5422,"ARG_OF_PERICENTER":79.8346,"MEAN_ANOMALY":280.491,"EPHEMERIS_TYPE":0,"CLASSIFICATION_TYPE":"U","NORAD_CAT_ID":14552,"ELEMENT_SET_NO":999,"REV_AT_EPOCH":26085,"BSTAR":6.9629297e-5,"MEAN_MOTION_DOT":6.32e-6,"MEAN_MOTION_DDOT":0}]
